CCSDS_OMM_VERS = 2.0
CREATION_DATE  = 
ORIGINATOR     = 

OBJECT_NAME    = BSAT-4B
OBJECT_ID      = 2020-056A
CENTER_NAME    = EARTH
REF_FRAME      = TEME
TIME_SYSTEM    = UTC
MEAN_ELEMENT_THEORY = SGP/SGP4

EPOCH          = 2020-09-08T11:38:58.494336
MEAN_MOTION    = 1.00338020
ECCENTRICITY   = .0004303
INCLINATION    = 0.0440
RA_OF_ASC_NODE = 306.1230
ARG_OF_PERICENTER = 9.7562
MEAN_ANOMALY   = 312.2846

EPHEMERIS_TYPE = 0
CLASSIFICATION_TYPE = U
NORAD_CAT_ID   = 46112
ELEMENT_SET_NO = 999
REV_AT_EPOCH   = 26
BSTAR          = .00000E-0
MEAN_MOTION_DOT = -3.43E-6
MEAN_MOTION_DDOT = 0

CCSDS_OMM_VERS = 2.0
CREATION_DATE  = 
ORIGINATOR     = 

OBJECT_NAME    = MEV-2
OBJECT_ID      = 2020-056B
CENTER_NAME    = EARTH
REF_FRAME      = TEME
TIME_SYSTEM    = UTC
MEAN_ELEMENT_THEORY = SGP/SGP4

EPOCH          = 2020-09-06T01:03:33.024672
MEAN_MOTION    = 1.89665302
ECCENTRICITY   = .5679467
INCLINATION    = 3.6163
RA_OF_ASC_NODE = 121.2949
ARG_OF_PERICENTER = 184.8189
MEAN_ANOMALY   = 113.1302

EPHEMERIS_TYPE = 0
CLASSIFICATION_TYPE = U
NORAD_CAT_ID   = 46113
ELEMENT_SET_NO = 999
REV_AT_EPOCH   = 42
BSTAR          = .00000E+0
MEAN_MOTION_DOT = -8.5E-7
MEAN_MOTION_DDOT = 0

CCSDS_OMM_VERS = 2.0
CREATION_DATE  = 
ORIGINATOR     = 

OBJECT_NAME    = GALAXY 30
OBJECT_ID      = 2020-056C
CENTER_NAME    = EARTH
REF_FRAME      = TEME
TIME_SYSTEM    = UTC
MEAN_ELEMENT_THEORY = SGP/SGP4

EPOCH          = 2020-09-08T21:53:22.852320
MEAN_MOTION    = 1.00273007
ECCENTRICITY   = .0000519
INCLINATION    = 0.0164
RA_OF_ASC_NODE = 355.8060
ARG_OF_PERICENTER = 224.9778
MEAN_ANOMALY   = 180.5231

EPHEMERIS_TYPE = 0
CLASSIFICATION_TYPE = U
NORAD_CAT_ID   = 46114
ELEMENT_SET_NO = 999
REV_AT_EPOCH   = 29
BSTAR          = .00000E-0
MEAN_MOTION_DOT = -1.82E-6
MEAN_MOTION_DDOT = 0

CCSDS_OMM_VERS = 2.0
CREATION_DATE  = 
ORIGINATOR     = 

OBJECT_NAME    = ARIANE 5 DEB [SYLDA]
OBJECT_ID      = 2020-056D
CENTER_NAME    = EARTH
REF_FRAME      = TEME
TIME_SYSTEM    = UTC
MEAN_ELEMENT_THEORY = SGP/SGP4

EPOCH          = 2020-09-08T07:03:18.600192
MEAN_MOTION    = 2.28324408
ECCENTRICITY   = .7268183
INCLINATION    = 6.0448
RA_OF_ASC_NODE = 115.1203
ARG_OF_PERICENTER = 197.0593
MEAN_ANOMALY   = 111.6007

EPHEMERIS_TYPE = 0
CLASSIFICATION_TYPE = U
NORAD_CAT_ID   = 46115
ELEMENT_SET_NO = 999
REV_AT_EPOCH   = 53
BSTAR          = .20023E-2
MEAN_MOTION_DOT = 3.983E-5
MEAN_MOTION_DDOT = 0

CCSDS_OMM_VERS = 2.0
CREATION_DATE  = 
ORIGINATOR     = 

OBJECT_NAME    = ARIANE 5 R/B
OBJECT_ID      = 2020-056E
CENTER_NAME    = EARTH
REF_FRAME      = TEME
TIME_SYSTEM    = UTC
MEAN_ELEMENT_THEORY = SGP/SGP4

EPOCH          = 2020-09-08T16:39:29.269728
MEAN_MOTION    = 2.28681443
ECCENTRICITY   = .7268417
INCLINATION    = 5.8145
RA_OF_ASC_NODE = 117.4740
ARG_OF_PERICENTER = 194.8132
MEAN_ANOMALY   = 119.6073

EPHEMERIS_TYPE = 0
CLASSIFICATION_TYPE = U
NORAD_CAT_ID   = 46116
ELEMENT_SET_NO = 999
REV_AT_EPOCH   = 55
BSTAR          = .18735E-3
MEAN_MOTION_DOT = 1.62E-6
MEAN_MOTION_DDOT = 0

CCSDS_OMM_VERS = 2.0
CREATION_DATE  = 
ORIGINATOR     = 

OBJECT_NAME    = STARLINK-1585
OBJECT_ID      = 2020-057A
CENTER_NAME    = EARTH
REF_FRAME      = TEME
TIME_SYSTEM    = UTC
MEAN_ELEMENT_THEORY = SGP/SGP4

EPOCH          = 2020-09-08T22:00:00.999936
MEAN_MOTION    = 15.66240683
ECCENTRICITY   = .0008248
INCLINATION    = 52.9979
RA_OF_ASC_NODE = 335.2730
ARG_OF_PERICENTER = 284.7461
MEAN_ANOMALY   = 296.1921

EPHEMERIS_TYPE = 0
CLASSIFICATION_TYPE = U
NORAD_CAT_ID   = 46117
ELEMENT_SET_NO = 999
REV_AT_EPOCH   = 177
BSTAR          = -.22764E-3
MEAN_MOTION_DOT = -2.4481E-4
MEAN_MOTION_DDOT = 0

CCSDS_OMM_VERS = 2.0
CREATION_DATE  = 
ORIGINATOR     = 

OBJECT_NAME    = STARLINK-1588
OBJECT_ID      = 2020-057B
CENTER_NAME    = EARTH
REF_FRAME      = TEME
TIME_SYSTEM    = UTC
MEAN_ELEMENT_THEORY = SGP/SGP4

EPOCH          = 2020-09-08T22:00:00.999936
MEAN_MOTION    = 15.62778613
ECCENTRICITY   = .0001112
INCLINATION    = 52.9999
RA_OF_ASC_NODE = 335.6233
ARG_OF_PERICENTER = 46.8343
MEAN_ANOMALY   = 9.5493

EPHEMERIS_TYPE = 0
CLASSIFICATION_TYPE = U
NORAD_CAT_ID   = 46118
ELEMENT_SET_NO = 999
REV_AT_EPOCH   = 403
BSTAR          = -.12120E-3
MEAN_MOTION_DOT = -1.1627E-4
MEAN_MOTION_DDOT = 0

CCSDS_OMM_VERS = 2.0
CREATION_DATE  = 
ORIGINATOR     = 

OBJECT_NAME    = STARLINK-1605
OBJECT_ID      = 2020-057G
CENTER_NAME    = EARTH
REF_FRAME      = TEME
TIME_SYSTEM    = UTC
MEAN_ELEMENT_THEORY = SGP/SGP4

EPOCH          = 2020-09-09T04:00:00.999936
MEAN_MOTION    = 15.62801058
ECCENTRICITY   = .0007680
INCLINATION    = 53.0003
RA_OF_ASC_NODE = 334.3599
ARG_OF_PERICENTER = 273.4253
MEAN_ANOMALY   = 128.7984

EPHEMERIS_TYPE = 0
CLASSIFICATION_TYPE = U
NORAD_CAT_ID   = 46123
ELEMENT_SET_NO = 999
REV_AT_EPOCH   = 407
BSTAR          = -.74089E-3
MEAN_MOTION_DOT = -6.8053E-4
MEAN_MOTION_DDOT = 0

